{"generatedAt":"2026-04-02T07:22:13.043864Z","satellites":[{"name":"STARLINK-37087","tle1":"1 68250U 26054U   26091.91668981 -.00019891  00000+0 -12585-3 0  9997","tle2":"2 68250  53.1596 196.2071 0001159  76.0722  85.8310 15.75245606  3647"},{"name":"STARLINK-36274","tle1":"1 68251U 26054V   26091.91668981 -.00053709  00000+0 -34803-3 0  9991","tle2":"2 68251  53.1600 196.2596 0001376  78.7349  57.4164 15.75263901  3685"},{"name":"STARLINK-37085","tle1":"1 68252U 26054W   26091.75224704  .00343427  00000+0  16643-2 0  9993","tle2":"2 68252  53.1591 196.9181 0001017  45.1670 314.9435 15.81014336  2425"},{"name":"STARLINK-37086","tle1":"1 68253U 26054X   26091.75149690  .00209768  00000+0  10361-2 0  9994","tle2":"2 68253  53.1594 196.9129 0001176 121.0455 239.0684 15.80970479  2423"},{"name":"STARLINK-37084","tle1":"1 68254U 26054Y   26091.74998820  .00118363  00000+0  59246-3 0  9997","tle2":"2 68254  53.1591 196.9032 0002066  52.2273 307.8937 15.80966056  2427"},{"name":"STARLINK-37075","tle1":"1 68255U 26054Z   26091.75074130  .00315072  00000+0  15315-2 0  9992","tle2":"2 68255  53.1595 196.9083 0000770 139.5664 220.5417 15.81025902  2422"},{"name":"STARLINK-36333","tle1":"1 68256U 26054AA  26091.74924539  .00333984  00000+0  16203-2 0  9998","tle2":"2 68256  53.1590 196.8986 0000698 112.6710 247.4386 15.81015817  2429"},{"name":"STARLINK-36745","tle1":"1 68257U 26054AB  26091.91668981  .00011483  00000+0  79006-4 0  9993","tle2":"2 68257  53.1597 196.1533 0001231  70.2644 117.3992 15.75230880  3642"},{"name":"STARLINK-36890","tle1":"1 68258U 26054AC  26091.74699763  .00349085  00000+0  16907-2 0  9998","tle2":"2 68258  53.1590 196.8831 0001461  57.2014 302.9150 15.81013420  2424"},{"name":"STARLINK-36323","tle1":"1 68259U 26054AD  26091.74849830  .00330657  00000+0  16052-2 0  9997","tle2":"2 68259  53.1593 196.8930 0001311  71.7411 288.3755 15.81011984  2425"},{"name":"STARLINK-37056","tle1":"1 68260U 26054AE  26091.74624587  .00220871  00000+0  10890-2 0  9999","tle2":"2 68260  53.1592 196.8776 0001201 137.3602 222.7515 15.80976464  2421"},{"name":"STARLINK-37162","tle1":"1 68262U 26055A   26091.91668981 -.01182253  00000+0 -53542-2 0  9992","tle2":"2 68262  53.1576 220.9266 0000834  59.1399 338.4556 15.85641757  3366"},{"name":"STARLINK-37156","tle1":"1 68263U 26055B   26091.91668981 -.01184649  00000+0 -53451-2 0  9993","tle2":"2 68263  53.1573 220.9193 0000785  59.4686 341.8935 15.85723227  3362"},{"name":"STARLINK-37163","tle1":"1 68264U 26055C   26091.91668981 -.01197822  00000+0 -53944-2 0  9998","tle2":"2 68264  53.1575 220.9010 0000831  60.2573 349.5085 15.85788474  3366"},{"name":"STARLINK-37133","tle1":"1 68265U 26055D   26091.91668981 -.01190025  00000+0 -53658-2 0  9999","tle2":"2 68265  53.1574 220.9101 0000785  58.7731 346.8368 15.85748070  3365"},{"name":"STARLINK-37042","tle1":"1 68266U 26055E   26091.91668981 -.01205613  00000+0 -54413-2 0  9990","tle2":"2 68266  53.1574 220.8917 0000866  58.7222 355.7649 15.85760093  3365"},{"name":"STARLINK-37103","tle1":"1 68267U 26055F   26091.91668981 -.01212254  00000+0 -54713-2 0  9993","tle2":"2 68267  53.1577 220.8824 0000774  62.5973 356.2791 15.85774637  3363"},{"name":"STARLINK-36999","tle1":"1 68268U 26055G   26091.91668981 -.01217528  00000+0 -54875-2 0  9992","tle2":"2 68268  53.1575 220.8738 0000795  61.8973   1.1732 15.85813527  3364"},{"name":"STARLINK-36962","tle1":"1 68269U 26055H   26091.91668981 -.01229658  00000+0 -55397-2 0  9990","tle2":"2 68269  53.1577 220.8648 0000865  61.8112   5.5657 15.85847453  3369"},{"name":"STARLINK-37028","tle1":"1 68270U 26055J   26091.91668981 -.01326504  00000+0 -60762-2 0  9992","tle2":"2 68270  53.1577 220.8425 0000911  59.2394  18.6177 15.85712691  3366"},{"name":"STARLINK-37029","tle1":"1 68271U 26055K   26091.91668981 -.01273203  00000+0 -58113-2 0  9997","tle2":"2 68271  53.1575 220.8520 0000866  61.2287  12.2435 15.85672536  3364"},{"name":"STARLINK-36974","tle1":"1 68272U 26055L   26091.91668981 -.01402294  00000+0 -64852-2 0  9999","tle2":"2 68272  53.1575 220.8325 0000864  59.7330  23.0042 15.85682344  3369"},{"name":"STARLINK-37019","tle1":"1 68273U 26055M   26091.91668981 -.01408305  00000+0 -65065-2 0  9996","tle2":"2 68273  53.1577 220.8232 0000862  60.9027  25.9758 15.85715741  3367"},{"name":"STARLINK-37129","tle1":"1 68274U 26055N   26091.91668981 -.01421668  00000+0 -65788-2 0  9996","tle2":"2 68274  53.1574 220.8144 0000902  60.1349  31.1467 15.85712241  3369"},{"name":"STARLINK-37123","tle1":"1 68275U 26055P   26091.91668981 -.01422958  00000+0 -65716-2 0  9991","tle2":"2 68275  53.1578 220.8062 0000891  58.7245  36.6228 15.85755798  3367"},{"name":"STARLINK-37125","tle1":"1 68276U 26055Q   26091.91668981 -.01468368  00000+0 -66775-2 0  9993","tle2":"2 68276  53.1575 220.7963 0001013  45.6178  54.5001 15.85693077  3360"},{"name":"STARLINK-36989","tle1":"1 68277U 26055R   26091.91668981 -.01492272  00000+0 -68116-2 0  9996","tle2":"2 68277  53.1574 220.7688 0000920  63.9081  49.4580 15.85660576  3369"},{"name":"STARLINK-36982","tle1":"1 68278U 26055S   26091.91668981 -.01490746  00000+0 -68058-2 0  9996","tle2":"2 68278  53.1574 220.7783 0000911  61.4930  47.5923 15.85654681  3362"},{"name":"STARLINK-36934","tle1":"1 68279U 26055T   26091.91668981 -.01485583  00000+0 -67813-2 0  9998","tle2":"2 68279  53.1574 220.7869 0001271  63.8384  40.9539 15.85644135  3360"},{"name":"STARLINK-37070","tle1":"1 68280U 26055U   26091.91668981 -.01505454  00000+0 -68964-2 0  9998","tle2":"2 68280  53.1577 220.7592 0001002  45.1912  72.8275 15.85610530  3363"},{"name":"STARLINK-37134","tle1":"1 68281U 26055V   26091.91668981 -.01521635  00000+0 -69890-2 0  9997","tle2":"2 68281  53.1570 220.7406 0001000  52.5281  74.3673 15.85585739  3361"},{"name":"STARLINK-37160","tle1":"1 68282U 26055W   26091.91668981 -.01515143  00000+0 -69561-2 0  9990","tle2":"2 68282  53.1574 220.7506 0001014  51.3781  71.1645 15.85582873  3364"},{"name":"STARLINK-37124","tle1":"1 68283U 26055X   26091.91668981 -.01527655  00000+0 -70047-2 0  9993","tle2":"2 68283  53.1572 220.7326 0001079  47.6448  83.3755 15.85630414  3364"},{"name":"STARLINK-37159","tle1":"1 68284U 26055Y   26091.91668981 -.01538753  00000+0 -70660-2 0  9996","tle2":"2 68284  53.1573 220.7232 0000958  56.9395  78.5616 15.85621797  3367"},{"name":"STARLINK-36725","tle1":"1 68285U 26055Z   26091.91668981 -.01538202  00000+0 -70474-2 0  9999","tle2":"2 68285  53.1568 220.7138 0001081  57.4397  82.1810 15.85665835  3361"},{"name":"STARLINK-36998","tle1":"1 68286U 26055AA  26091.91668981 -.01554619  00000+0 -71374-2 0  9990","tle2":"2 68286  53.1576 220.6971 0000997  56.6747  91.9436 15.85654257  3368"},{"name":"STARLINK-37165","tle1":"1 68287U 26055AB  26091.91668981 -.01576841  00000+0 -72437-2 0  9993","tle2":"2 68287  53.1572 220.6863 0000951  63.9759  89.0124 15.85683461  3360"},{"name":"STARLINK-37016","tle1":"1 68288U 26055AC  26091.91668981 -.01545618  00000+0 -70826-2 0  9992","tle2":"2 68288  53.1570 220.7053 0001063  54.2227  89.7828 15.85675860  3361"},{"name":"STARLINK-37010","tle1":"1 68289U 26055AD  26091.91668981 -.01607953  00000+0 -73847-2 0  9990","tle2":"2 68289  53.1575 220.6772 0000971  60.8249  96.3329 15.85745526  3365"},{"name":"STARLINK-37151","tle1":"1 68290U 26055AE  26091.91668981 -.01646830  00000+0 -75534-2 0  9994","tle2":"2 68290  53.1568 220.6691 0001059  61.7244  99.4149 15.85842582  3366"},{"name":"STARLINK-37107","tle1":"1 68294U 26057A   26091.91668981 -.01413808  57065-3 -43612-2 0  9996","tle2":"2 68294  97.2806 215.3701 0001355  84.9073 189.8812 15.91812962  2897"},{"name":"STARLINK-37147","tle1":"1 68295U 26057B   26091.91668981 -.01418822  57482-3 -43605-2 0  9993","tle2":"2 68295  97.2802 215.3710 0001392  76.1719 202.1510 15.91886125  2880"},{"name":"STARLINK-37142","tle1":"1 68296U 26057C   26091.91668981 -.01427652  58262-3 -43429-2 0  9996","tle2":"2 68296  97.2794 215.3759 0001360  77.6006 212.3489 15.92086871  2771"},{"name":"STARLINK-37115","tle1":"1 68297U 26057D   26091.91668981 -.01426590  58139-3 -43560-2 0  9996","tle2":"2 68297  97.2793 215.3732 0001344  77.8329 208.4734 15.92013582  2772"},{"name":"STARLINK-36355","tle1":"1 68298U 26057E   26091.91668981 -.01417758  57443-3 -43411-2 0  9995","tle2":"2 68298  97.2797 215.3721 0001338  85.8724 196.1283 15.91958273  3043"},{"name":"STARLINK-37118","tle1":"1 68299U 26057F   26091.91668981 -.01440030  59283-3 -43499-2 0  9995","tle2":"2 68299  97.2787 215.3786 0001357  78.6608 219.3282 15.92225381  2882"},{"name":"STARLINK-36875","tle1":"1 68300U 26057G   26091.91668981 -.01437576  59049-3 -43602-2 0  9995","tle2":"2 68300  97.2792 215.3771 0001390  74.3963 219.9857 15.92145676  2948"},{"name":"STARLINK-37099","tle1":"1 68301U 26057H   26091.91668981 -.01450313  60103-3 -43686-2 0  9995","tle2":"2 68301  97.2785 215.3810 0001369  75.2645 227.3647 15.92281521  2779"},{"name":"STARLINK-37007","tle1":"1 68302U 26057J   26091.91668981 -.01505160  64459-3 -45065-2 0  9998","tle2":"2 68302  97.2778 215.3845 0001216  79.9607 231.9043 15.92407028  2997"},{"name":"STARLINK-36300","tle1":"1 68303U 26057K   26091.91668981 -.01460031  60879-3 -43877-2 0  9997","tle2":"2 68303  97.2779 215.3826 0001245  85.6110 221.9112 15.92328506  3049"},{"name":"STARLINK-36849","tle1":"1 68304U 26057L   26091.91668981 -.01545322  67749-3 -46047-2 0  9990","tle2":"2 68304  97.2778 215.3862 0001335  75.1182 240.3703 15.92505037  2947"},{"name":"STARLINK-36277","tle1":"1 68305U 26057M   26091.91668981 -.01648352  76488-3 -48754-2 0  9995","tle2":"2 68305  97.2769 215.3890 0001330  73.1581 250.5091 15.92662916  3107"},{"name":"STARLINK-36307","tle1":"1 68306U 26057N   26091.91668981 -.01577466  70448-3 -46798-2 0  9999","tle2":"2 68306  97.2776 215.3877 0001305  75.3835 243.6955 15.92595031  3047"},{"name":"STARLINK-36264","tle1":"1 68307U 26057P   26091.91668981 -.01683022  79526-3 -49723-2 0  9993","tle2":"2 68307  97.2772 215.3916 0001308  72.2136 256.3169 15.92689632  3107"}]}